{
  "type": "FeatureCollection",
  "features": [
    {
      "type": "Feature",
      "properties": {
        "norad_id": 66597,
        "name": "STARLINK-35820",
        "group": "last-30-days",
        "lat": -26.45118142192726,
        "lon": 88.74440849058503,
        "alt_km": 445.61297833085155,
        "timestamp": "2025-12-25T03:55:54.951640+00:00",
        "meta_object_name": "STARLINK-35820",
        "meta_object_id": "2025-270K",
        "meta_epoch": "2025-12-24T01:39:32.434560",
        "meta_mean_motion": 15.40696473,
        "meta_eccentricity": 0.00013713,
        "meta_inclination": 43.0036,
        "meta_ra_of_asc_node": 127.3192,
        "meta_arg_of_pericenter": 264.1227,
        "meta_mean_anomaly": 95.9474,
        "meta_ephemeris_type": 0,
        "meta_classification_type": "U",
        "meta_norad_cat_id": 66597,
        "meta_element_set_no": 999,
        "meta_rev_at_epoch": 620,
        "meta_bstar": 0.0010460167,
        "meta_mean_motion_dot": 0.00043636,
        "meta_mean_motion_ddot": 0,
        "tle_line1": "1 66597U 25270K   25358.06912540  .00043636  00000+0  10460-2 0  9993",
        "tle_line2": "2 66597  43.0036 127.3192 0001371 264.1227  95.9474 15.40696473  6203"
      },
      "geometry": {
        "type": "Point",
        "coordinates": [
          88.74440849058503,
          -26.45118142192726
        ]
      }
    },
    {
      "type": "Feature",
      "properties": {
        "norad_id": 66598,
        "name": "STARLINK-35981",
        "group": "last-30-days",
        "lat": 29.45038482391846,
        "lon": 158.09090122474777,
        "alt_km": 440.8673003576887,
        "timestamp": "2025-12-25T03:55:54.951652+00:00",
        "meta_object_name": "STARLINK-35981",
        "meta_object_id": "2025-270L",
        "meta_epoch": "2025-12-24T19:57:12.000096",
        "meta_mean_motion": 15.40722714,
        "meta_eccentricity": 0.0003888,
        "meta_inclination": 43.0036,
        "meta_ra_of_asc_node": 122.7174,
        "meta_arg_of_pericenter": 275.1831,
        "meta_mean_anomaly": 84.8581,
        "meta_ephemeris_type": 0,
        "meta_classification_type": "U",
        "meta_norad_cat_id": 66598,
        "meta_element_set_no": 999,
        "meta_rev_at_epoch": 606,
        "meta_bstar": 0.0010776,
        "meta_mean_motion_dot": 0.00045016,
        "meta_mean_motion_ddot": 0,
        "tle_line1": "1 66598U 25270L   25358.83138889  .00045016  00000+0  10776-2 0  9999",
        "tle_line2": "2 66598  43.0036 122.7174 0003888 275.1831  84.8581 15.40722714  6069"
      },
      "geometry": {
        "type": "Point",
        "coordinates": [
          158.09090122474777,
          29.45038482391846
        ]
      }
    },
    {
      "type": "Feature",
      "properties": {
        "norad_id": 66599,
        "name": "STARLINK-35930",
        "group": "last-30-days",
        "lat": -2.092399909263335,
        "lon": -57.28313619431825,
        "alt_km": 444.0738853896173,
        "timestamp": "2025-12-25T03:55:54.951663+00:00",
        "meta_object_name": "STARLINK-35930",
        "meta_object_id": "2025-270M",
        "meta_epoch": "2025-12-24T20:00:01.000224",
        "meta_mean_motion": 15.40628332,
        "meta_eccentricity": 0.000139,
        "meta_inclination": 43.0007,
        "meta_ra_of_asc_node": 122.3747,
        "meta_arg_of_pericenter": 268.7716,
        "meta_mean_anomaly": 239.0522,
        "meta_ephemeris_type": 0,
        "meta_classification_type": "U",
        "meta_norad_cat_id": 66599,
        "meta_element_set_no": 999,
        "meta_rev_at_epoch": 611,
        "meta_bstar": 0.0023535,
        "meta_mean_motion_dot": 0.00099056,
        "meta_mean_motion_ddot": 0,
        "tle_line1": "1 66599U 25270M   25358.83334491  .00099056  00000+0  23535-2 0  9997",
        "tle_line2": "2 66599  43.0007 122.3747 0001390 268.7716 239.0522 15.40628332  6112"
      },
      "geometry": {
        "type": "Point",
        "coordinates": [
          -57.28313619431825,
          -2.092399909263335
        ]
      }
    },
    {
      "type": "Feature",
      "properties": {
        "norad_id": 66600,
        "name": "STARLINK-35980",
        "group": "last-30-days",
        "lat": 42.677223543199794,
        "lon": -140.99628432180123,
        "alt_km": 437.57021670017093,
        "timestamp": "2025-12-25T03:55:54.951673+00:00",
        "meta_object_name": "STARLINK-35980",
        "meta_object_id": "2025-270N",
        "meta_epoch": "2025-12-24T16:37:35.569056",
        "meta_mean_motion": 15.40770465,
        "meta_eccentricity": 0.0001319,
        "meta_inclination": 43.0002,
        "meta_ra_of_asc_node": 123.3929,
        "meta_arg_of_pericenter": 307.5991,
        "meta_mean_anomaly": 52.4745,
        "meta_ephemeris_type": 0,
        "meta_classification_type": "U",
        "meta_norad_cat_id": 66600,
        "meta_element_set_no": 999,
        "meta_rev_at_epoch": 609,
        "meta_bstar": 0.0019569,
        "meta_mean_motion_dot": 0.00082524,
        "meta_mean_motion_ddot": 0,
        "tle_line1": "1 66600U 25270N   25358.69277279  .00082524  00000+0  19569-2 0  9998",
        "tle_line2": "2 66600  43.0002 123.3929 0001319 307.5991  52.4745 15.40770465  6097"
      },
      "geometry": {
        "type": "Point",
        "coordinates": [
          -140.99628432180123,
          42.677223543199794
        ]
      }
    },
    {
      "type": "Feature",
      "properties": {
        "norad_id": 66601,
        "name": "STARLINK-35978",
        "group": "last-30-days",
        "lat": -2.4576375462430957,
        "lon": 118.27870487301247,
        "alt_km": 443.609155012,
        "timestamp": "2025-12-25T03:55:54.951684+00:00",
        "meta_object_name": "STARLINK-35978",
        "meta_object_id": "2025-270P",
        "meta_epoch": "2025-12-24T15:30:02.252160",
        "meta_mean_motion": 15.40701437,
        "meta_eccentricity": 0.0002283,
        "meta_inclination": 43.0014,
        "meta_ra_of_asc_node": 123.9041,
        "meta_arg_of_pericenter": 277.4701,
        "meta_mean_anomaly": 82.5896,
        "meta_ephemeris_type": 0,
        "meta_classification_type": "U",
        "meta_norad_cat_id": 66601,
        "meta_element_set_no": 999,
        "meta_rev_at_epoch": 602,
        "meta_bstar": 0.0010245,
        "meta_mean_motion_dot": 0.00042734,
        "meta_mean_motion_ddot": 0,
        "tle_line1": "1 66601U 25270P   25358.64585940  .00042734  00000+0  10245-2 0  9992",
        "tle_line2": "2 66601  43.0014 123.9041 0002283 277.4701  82.5896 15.40701437  6024"
      },
      "geometry": {
        "type": "Point",
        "coordinates": [
          118.27870487301247,
          -2.4576375462430957
        ]
      }
    },
    {
      "type": "Feature",
      "properties": {
        "norad_id": 66602,
        "name": "STARLINK-36050",
        "group": "last-30-days",
        "lat": -41.86275407300564,
        "lon": 47.061357999159966,
        "alt_km": 445.32046351906683,
        "timestamp": "2025-12-25T03:55:54.951694+00:00",
        "meta_object_name": "STARLINK-36050",
        "meta_object_id": "2025-270Q",
        "meta_epoch": "2025-12-24T15:49:23.680704",
        "meta_mean_motion": 15.40720503,
        "meta_eccentricity": 0.0002725,
        "meta_inclination": 43.0047,
        "meta_ra_of_asc_node": 124.0081,
        "meta_arg_of_pericenter": 283.3149,
        "meta_mean_anomaly": 76.7404,
        "meta_ephemeris_type": 0,
        "meta_classification_type": "U",
        "meta_norad_cat_id": 66602,
        "meta_element_set_no": 999,
        "meta_rev_at_epoch": 608,
        "meta_bstar": 0.0011394,
        "meta_mean_motion_dot": 0.00047626,
        "meta_mean_motion_ddot": 0,
        "tle_line1": "1 66602U 25270Q   25358.65930186  .00047626  00000+0  11394-2 0  9991",
        "tle_line2": "2 66602  43.0047 124.0081 0002725 283.3149  76.7404 15.40720503  6081"
      },
      "geometry": {
        "type": "Point",
        "coordinates": [
          47.061357999159966,
          -41.86275407300564
        ]
      }
    },
    {
      "type": "Feature",
      "properties": {
        "norad_id": 66603,
        "name": "STARLINK-36048",
        "group": "last-30-days",
        "lat": 22.328411724647385,
        "lon": 146.97851682163585,
        "alt_km": 440.89216621550077,
        "timestamp": "2025-12-25T03:55:54.951703+00:00",
        "meta_object_name": "STARLINK-36048",
        "meta_object_id": "2025-270R",
        "meta_epoch": "2025-12-24T15:20:21.734016",
        "meta_mean_motion": 15.40765609,
        "meta_eccentricity": 0.0001545,
        "meta_inclination": 42.9999,
        "meta_ra_of_asc_node": 123.8518,
        "meta_arg_of_pericenter": 251.3803,
        "meta_mean_anomaly": 108.6885,
        "meta_ephemeris_type": 0,
        "meta_classification_type": "U",
        "meta_norad_cat_id": 66603,
        "meta_element_set_no": 999,
        "meta_rev_at_epoch": 608,
        "meta_bstar": 0.0016581,
        "meta_mean_motion_dot": 0.00069747,
        "meta_mean_motion_ddot": 0,
        "tle_line1": "1 66603U 25270R   25358.63914044  .00069747  00000+0  16581-2 0  9996",
        "tle_line2": "2 66603  42.9999 123.8518 0001545 251.3803 108.6885 15.40765609  6083"
      },
      "geometry": {
        "type": "Point",
        "coordinates": [
          146.97851682163585,
          22.328411724647385
        ]
      }
    }
  ]
}